[{"OBJECT_NAME":"QIANFAN-22","OBJECT_ID":"2024-185D","EPOCH":"2026-03-09T23:31:55.028928","MEAN_MOTION":13.86341559,"ECCENTRICITY":0.00086446,"INCLINATION":88.9743,"RA_OF_ASC_NODE":69.6686,"ARG_OF_PERICENTER":90.0362,"MEAN_ANOMALY":270.1799,"EPHEMERIS_TYPE":0,"CLASSIFICATION_TYPE":"U","NORAD_CAT_ID":61555,"ELEMENT_SET_NO":999,"REV_AT_EPOCH":8102,"BSTAR":0.00027768679,"MEAN_MOTION_DOT":3.34e-6,"MEAN_MOTION_DDOT":0},{"OBJECT_NAME":"SL-16 DEB","OBJECT_ID":"1992-093H","EPOCH":"2026-03-09T21:53:56.758272","MEAN_MOTION":13.74691114,"ECCENTRICITY":0.01951934,"INCLINATION":71.0538,"RA_OF_ASC_NODE":284.9317,"ARG_OF_PERICENTER":34.5512,"MEAN_ANOMALY":326.8096,"EPHEMERIS_TYPE":0,"CLASSIFICATION_TYPE":"U","NORAD_CAT_ID":22293,"ELEMENT_SET_NO":999,"REV_AT_EPOCH":65896,"BSTAR":0.00011239221,"MEAN_MOTION_DOT":8.1e-7,"MEAN_MOTION_DDOT":0}]
